QIANFAN-33              
1 61566U 24185Q   26005.47687317  .00000561  00000+0  39576-3 0  9994
2 61566  88.9784  76.1659 0005342 241.4691 118.5948 13.96575656 72474
QIANFAN-34              
1 61567U 24185R   26005.48764813  .00000589  00000+0  37548-3 0  9990
2 61567  88.9762  75.6967 0003817 246.7286 113.3492 14.02331482 72685
QIANFAN-35              
1 61568U 24185S   26005.52237521  .00001105  00000+0  43951-3 0  9997
2 61568  88.9785  74.0919 0006161 187.6753 172.4348 14.28016413 73575
QIANFAN-36              
1 61569U 24185T   26005.50927934  .00000186  00000+0  24966-3 0  9993
2 61569  88.9771  78.5730 0005037 351.5677   8.5391 13.55595679 71142
QIANFAN-37              
1 62238U 24232B   26005.47090067  .00000067  00000+0  85271-4 0  9999
2 62238  88.9998  38.9325 0002333  80.5676 279.5738 13.50981931102371
QIANFAN-38              
1 62239U 24232C   26005.49560094  .00000082  00000+0  10820-3 0  9998
2 62239  89.0005  38.8473 0016289 123.1927 237.0789 13.50979744102435
QIANFAN-39              
1 62240U 24232D   26005.50237118  .00000351  00000+0  14259-3 0  9999
2 62240  88.9998  34.5896 0016227   9.2893 350.8597 14.25409292104775
QIANFAN-40              
1 62241U 24232E   26005.45445431  .00000076  00000+0  98894-4 0  9995
2 62241  89.0033  38.4426 0015177 130.1817 230.0665 13.50979772102790
